OBJECT_NAME,OBJECT_ID,EPOCH,MEAN_MOTION,ECCENTRICITY,INCLINATION,RA_OF_ASC_NODE,ARG_OF_PERICENTER,MEAN_ANOMALY,EPHEMERIS_TYPE,CLASSIFICATION_TYPE,NORAD_CAT_ID,ELEMENT_SET_NO,REV_AT_EPOCH,BSTAR,MEAN_MOTION_DOT,MEAN_MOTION_DDOT
DUCHIFAT-1,2014-033M,2026-07-15T02:33:22.918464,15.70998071,.00027596,98.0418,259.3300,247.0602,113.0368,0,U,40021,999,66012,.75655471E-3,.95423E-3,0
NANOSATC-BR1,2014-033Q,2026-07-15T00:45:29.023488,15.32325644,.00053019,98.0712,230.9033,95.9115,264.2729,0,U,40024,999,65824,.33334798E-3,.10322E-3,0
QB50P1,2014-033R,2026-07-15T13:14:24.385632,15.18670090,.00103554,98.0962,209.6951,123.5579,236.6643,0,U,40025,999,65733,.21798319E-3,.4446E-4,0
DTUSAT-2,2014-033W,2026-07-14T23:23:20.510016,15.15350472,.0009313,98.0873,195.4742,132.4073,227.7947,0,U,40030,999,65689,.18144E-3,.3349E-4,0
QB50P2,2014-033Y,2026-07-15T05:31:30.969120,15.15506307,.0009323,98.0760,194.8648,83.4516,276.7776,0,U,40032,999,65691,.19604245E-3,.3641E-4,0
PERSEUS-M1,2014-033AF,2026-07-15T09:38:56.989536,14.95716338,.00109196,97.9654,141.0000,195.4743,164.6145,0,U,40039,999,65485,.10973457E-3,.1162E-4,0
POLYITAN-1,2014-033AJ,2026-07-15T00:58:39.811584,15.34216227,.00079404,98.0932,224.9562,64.6154,295.5908,0,U,40042,999,65786,.34568491E-3,.11373E-3,0
TIGRISAT,2014-033AK,2026-07-15T09:53:09.453408,14.85249877,.00486192,97.7864,345.7834,343.6307,16.3336,0,U,40043,999,64981,.88930323E-4,.723E-5,0
CANX-4,2014-034C,2026-07-15T02:48:59.289696,14.81311066,.00114247,98.3083,72.4512,283.1173,76.8763,0,U,40055,999,64866,.61209325E-4,.42E-5,0
CANX-5,2014-034D,2026-07-15T10:52:36.323616,14.81328706,.00114138,98.3085,72.8445,282.1246,77.8687,0,U,40056,999,63952,.59894875E-4,.41E-5,0
GONETS-M 10,2014-036C,2026-07-15T15:29:38.130144,12.42946091,.00229437,82.5129,289.9994,81.5235,278.8444,0,U,40063,999,54578,.61418636E-4,.19E-6,0
METEOR-M 2,2014-037A,2026-07-15T13:59:39.136704,14.21468312,.00051752,98.5126,171.3183,326.1747,33.9100,0,U,40069,999,62335,-.97316885E-4,-.255E-5,0
DX1,2014-037C,2026-07-15T15:11:41.357184,14.90060510,.00070501,98.3875,160.0652,169.0092,191.1279,0,U,40071,999,65034,.5362208E-4,.455E-5,0
UKUBE-1,2014-037F,2026-07-15T06:16:21.848736,15.13950237,.00032846,98.4242,202.4925,87.8667,272.2938,0,U,40074,999,65280,.22031185E-3,.3915E-4,0
GAOFEN-2,2014-049A,2026-07-15T14:55:45.054336,14.80930644,.00082794,98.0101,260.8004,133.1294,227.0612,0,U,40118,999,64344,.13192833E-3,.967E-5,0
BRITE-PL2 (HEWELIUSZ),2014-049B,2026-07-15T13:23:13.221024,14.94687803,.00143041,97.9120,308.7813,21.0628,339.1178,0,U,40119,999,64568,.52887493E-4,.515E-5,0
CBERS 4,2014-079A,2026-07-15T14:45:30.280320,14.35517093,.00008157,98.3520,252.5524,51.2781,308.8478,0,U,40336,999,60803,.12652991E-3,.322E-5,0
SMAP,2015-003A,2026-07-15T14:13:20.128512,14.63389423,.00016021,98.1284,203.2857,95.0060,265.1325,0,U,40376,999,61177,.46309646E-4,.192E-5,0
GONETS-M 11,2015-020A,2026-07-15T14:02:23.216352,12.42878782,.00153888,82.4859,13.2924,302.3905,57.5685,0,U,40552,999,51226,.45676526E-3,.73E-6,0
GONETS-M 12,2015-020B,2026-07-15T13:23:46.508352,12.42892508,.00142557,82.4892,14.4404,286.3790,73.5722,0,U,40553,999,51225,.75526934E-3,.114E-5,0
GONETS-M 13,2015-020C,2026-07-15T14:42:11.221632,12.42872073,.00127937,82.4854,13.0132,270.0584,89.9030,0,U,40554,999,51223,.337258E-3,.56E-6,0
DMC3-FM1,2015-032A,2026-07-15T13:24:22.569120,14.85765855,.0004911,97.6427,60.6162,335.7479,24.3505,0,U,40715,999,59412,-.11190426E-4,-.148E-5,0
DMC3-FM2,2015-032B,2026-07-15T13:55:57.791136,14.85773840,.00054605,97.6480,62.2304,340.5469,19.5538,0,U,40716,999,59412,.57293953E-4,.446E-5,0
DMC3-FM3,2015-032C,2026-07-15T14:29:50.792640,14.85765161,.00047031,97.6534,64.0242,344.0077,16.0990,0,U,40717,999,59413,.81114569E-4,.653E-5,0
CARBONITE 1 (CBNT-1),2015-032D,2026-07-15T13:49:55.655904,14.83667428,.0013945,97.6512,13.4566,195.8129,164.2653,0,U,40718,999,59355,.9478919E-4,.733E-5,0
LILACSAT-2,2015-049K,2026-07-15T13:52:54.450336,15.52368215,.00084259,97.4622,234.5123,140.4028,219.7841,0,U,40908,999,60015,.19458057E-3,.11778E-3,0
